HST                     
1 20580U 90037B   22099.19720034  .00002987  00000+0  16714-3 0  9999
2 20580  28.4697 267.6018 0002801  15.5205 155.6933 15.10251705555736
POLAR                   
1 23802U 96013A   22098.71110337  .00000225  00000+0  00000+0 0  9995
2 23802  78.7515 242.3104 5841694 261.2488  32.1575  1.29846810124980
SWAS                    
1 25560U 98071A   22099.57908364  .00001689  00000+0  16442-3 0  9990
2 25560  69.8982 159.6867 0005085  50.0081 310.1521 14.94534154267734
CXO                     
1 25867U 99040B   22101.94074325  .00001101  00000+0  00000+0 0  9991
2 25867  47.2611 239.8396 8745653 231.6112   0.6119  0.37810188 22709
XMM-NEWTON              
1 25989U 99066A   22100.68181121  .00000074  00000+0  00000+0 0  9995
2 25989  70.2563 305.9733 6140458  87.5435 359.8036  0.50129776 15342
TERRA                   
1 25994U 99068A   22099.54099375  .00000353  00000+0  88156-4 0  9997
2 25994  98.1410 173.0276 0001299  97.2611  10.9874 14.57125036186465
CLUSTER II-FM7 (SAMBA)  
1 26410U 00041A   22101.04052408  .00000033  00000+0  00000+0 0  9991
2 26410 133.8601 347.1099 5498902 198.0970   0.5426  0.44203541 13511
CLUSTER II-FM6 (SALSA)  
1 26411U 00041B   22101.01247346 -.00000122  00000+0  00000+0 0  9996
2 26411 135.7417 350.1910 7127267 202.6982   0.7611  0.44216067 13553
CLUSTER II-FM5 (RUMBA)  
1 26463U 00045A   22101.01581632 -.00000006  00000+0  00000+0 0  9997
2 26463 139.3180 350.4443 6647720 203.4278   0.6485  0.44216075 13443
CLUSTER II-FM8 (TANGO)  
1 26464U 00045B   22101.01996001  .00000032  00000+0  00000+0 0  9996
2 26464 133.8565 347.1066 5496360 198.0878   0.6376  0.44221532 13522
ODIN                    
1 26702U 01007A   22099.59030793  .00007989  00000+0  50268-3 0  9999
2 26702  97.5260 115.6002 0011158 158.3103 201.8601 15.09413518155882
TIMED                   
1 26998U 01055B   22099.35770276  .00001092  00000+0  12139-3 0  9994
2 26998  74.0730  57.2841 0002341 281.4015  78.6903 14.88545127102725
RHESSI                  
1 27370U 02004A   22099.37984171  .00028204  00000+0  67772-3 0  9994
2 27370  38.0327  72.5922 0008663 332.8487  27.1832 15.40506371115944
INTEGRAL                
1 27540U 02048A   22098.33705736 -.00000133  00000+0  00000+0 0  9993
2 27540  73.2753  63.7793 8931437 299.2868  19.4337  0.37586542 20886
CORIOLIS                
1 27640U 03001A   22099.65187463  .00000099  00000+0  68234-4 0  9999
2 27640  98.7205 109.7335 0013159 297.6783 174.3814 14.19114896997198
SORCE                   
1 27651U 03004A   22099.55507050  .00001633  00000+0  18100-3 0  9992
2 27651  39.9950 242.1389 0023665 345.6986  14.3131 14.89706082 42790
MOST                    
1 27843U 03031D   22099.54534919  .00000081  00000+0  57740-4 0  9998
2 27843  98.7102 108.1566 0009784 353.5850   6.5200 14.20671368973467
SCISAT 1                
1 27858U 03036A   22099.31235445  .00000484  00000+0  72881-4 0  9996
2 27858  73.9331 320.5982 0007606   6.3138 353.8130 14.77487683  5224
SWIFT                   
1 28485U 04047A   22099.27799060  .00004429  00000+0  26541-3 0  9993
2 28485  20.5573  75.8363 0010950 141.0176 219.1049 15.05917278953107
CLOUDSAT                
1 29107U 06016A   22099.52767147  .00000344  00000+0  76888-4 0  9994
2 29107  98.3215  59.0651 0003783 137.9655 222.1837 14.62864225848951
CALIPSO                 
1 29108U 06016B   22099.52380525  .00001030  00000+0  21131-3 0  9999
2 29108  98.3183  58.6583 0001301  83.1225 277.0124 14.62807003848942
HINODE (SOLAR-B)        
1 29479U 06041A   22099.58504140  .00000591  00000+0  11972-3 0  9998
2 29479  98.1259 115.6115 0019956  83.6475 276.7000 14.64738155830670
SJ-6C                   
1 29505U 06046A   22099.53017146  .00003025  00000+0  27657-3 0  9995
2 29505  97.7828 120.9996 0004551  11.4610 348.6719 14.95756322842396
SJ-6D                   
1 29506U 06046B   22099.55856826  .00002635  00000+0  25329-3 0  9994
2 29506  97.8035 121.2155 0003929  90.5806 269.5853 14.93887607841851
AGILE                   
1 31135U 07013A   22099.05263090  .00012812  00000+0  31455-3 0  9995
2 31135   2.4684  58.7890 0009811  79.5360 280.5799 15.36369631466251
AIM                     
1 31304U 07015A   22099.33998902  .00008810  00000+0  45584-3 0  9994
2 31304  97.8561  16.0241 0003246 245.2513 114.8381 15.16487308820717
FGRST (GLAST)           
1 33053U 08029A   22098.87759397  .00002381  00000+0  11812-3 0  9998
2 33053  25.5825 281.5323 0012593  93.6549 266.5426 15.11962390763153
WISE                    
1 36119U 09071A   22099.53696454  .00007638  00000+0  24479-3 0  9993
2 36119  97.2489 135.3494 0002900 150.2327 209.9081 15.32631590684946
SDO                     
1 36395U 10005A   22099.53487878 -.00000049  00000+0  00000+0 0  9996
2 36395  31.5204 110.3334 0001777 259.4388 278.6923  1.00274429 44722
CRYOSAT 2               
1 36508U 10013A   22099.54108659  .00000190  00000+0  46278-4 0  9997
2 36508  92.0256 267.3635 0007759 113.2165 246.9860 14.51907608636132
X-SAT                   
1 37389U 11015C   22099.38797287  .00000094  00000+0  58194-4 0  9994
2 37389  98.3433 136.1334 0014800 150.0960 210.1069 14.24412250570373
GCOM-W1 (SHIZUKU)       
1 38337U 12025A   22099.57774119  .00000518  00000+0  12505-3 0  9996
2 38337  98.1975  41.1319 0002047  80.4405  93.2756 14.57132206526284
NUSTAR                  
1 38358U 12031A   22099.07114269  .00003134  00000+0  25012-3 0  9999
2 38358   6.0256 148.4643 0010831  54.7570 305.3572 14.89066176534497
NEOSSAT                 
1 39089U 13009D   22099.55210436  .00000166  00000+0  73610-4 0  9993
2 39089  98.4273 297.5659 0012335 119.7916 240.4498 14.34636640477337
BRITE-AUSTRIA           
1 39091U 13009F   22099.54600219  .00000156  00000+0  69193-4 0  9997
2 39091  98.4111 298.6223 0011505 120.3024 239.9302 14.35246985477546
IRIS                    
1 39197U 13033A   22099.51694753  .00000898  00000+0  12776-3 0  9991
2 39197  97.9704 285.9759 0026220 251.1162 108.7206 14.79112166473783
HISAKI (SPRINT-A)       
1 39253U 13049A   22099.57808826  .00000141  00000+0  99542-4 0  9993
2 39253  29.7204  74.7562 0137132 218.8787 140.1852 13.55269658423759
CASSIOPE                
1 39265U 13055A   22099.55035280  .00014988  00000+0  40407-3 0  9996
2 39265  80.9670 340.3196 0630587 162.1253 200.3268 14.36802500442439
STSAT-3                 
1 39422U 13066G   22099.60369630  .00001647  00000+0  17416-3 0  9990
2 39422  97.4721 108.4664 0023732 147.8701 212.3954 14.90281671455588
SWARM B                 
1 39451U 13067A   22099.49370484  .00002971  00000+0  13593-3 0  9992
2 39451  87.7462  81.9420 0002955  95.9054 264.2527 15.20146113450455
SWARM A                 
1 39452U 13067B   22099.53662036  .00010584  00000+0  20263-3 0  9996
2 39452  87.3579 249.6053 0001962  78.5145 281.6335 15.47895189471334
SWARM C                 
1 39453U 13067C   22099.53650540  .00010691  00000+0  20468-3 0  9990
2 39453  87.3432 249.2169 0001962  78.4167 281.7313 15.47894037471293
BRITE-CA1 (TORONTO)     
1 40020U 14033L   22099.39150971  .00001011  00000+0  17870-3 0  9992
2 40020  97.7697 261.9022 0088201 123.3401 237.6287 14.66941806417538
OCO 2                   
1 40059U 14035A   22099.54122559  .00000451  00000+0  11015-3 0  9996
2 40059  98.1966  41.8339 0001230  85.5436 274.5903 14.57130908413291
BRITE-PL2 (HEWELIUSZ)   
1 40119U 14049B   22099.54984356  .00001376  00000+0  16745-3 0  9991
2 40119  97.8799 195.9078 0018643 106.8310 253.4951 14.84955864413782
RESURS P2               
1 40360U 14087A   22099.57377889  .00006939  00000+0  20119-3 0  9991
2 40360  97.2069 185.8886 0008701 348.0991 120.2487 15.35812255407688
MMS 1                   
1 40482U 15011A   22096.83333333 -.00001175  00000+0  00000+0 0  9997
2 40482  32.7558 108.0886 8594673  48.1492 331.5710  0.28437064 13098
MMS 2                   
1 40483U 15011B   22094.09179887 -.00001138  00000+0  00000+0 0  9995
2 40483  32.7302 108.1165 8589463  48.0800  51.0737  0.28434926 13154
MMS 3                   
1 40484U 15011C   22094.09179887 -.00001139  00000+0  00000+0 0  9997
2 40484  32.7223 108.1128 8593926  48.0420  51.0109  0.28434626 12837
MMS 4                   
1 40485U 15011D   22096.08333333 -.00001192  00000+0  00000+0 0  9996
2 40485  32.7517 108.0973 8593439  48.1308 254.8168  0.28438220 13042
ASTROSAT                
1 40930U 15052A   22099.10430021  .00001465  00000+0  11594-3 0  9990
2 40930   5.9979 312.7970 0009392 255.7800 104.1284 14.76538946352885
DAMPE                   
1 41173U 15078A   22099.62155574  .00001275  00000+0  54965-4 0  9991
2 41173  97.3749  91.4616 0015488  83.2993  51.5987 15.24292024351098
PISAT                   
1 41784U 16059B   22099.58198567  .00000697  00000+0  14138-3 0  9997
2 41784  97.9246 145.5882 0032355  29.7322 330.5711 14.63812549295615
HXMT (HUIYAN)           
1 42758U 17034A   22099.24510932  .00004562  00000+0  28883-3 0  9997
2 42758  43.0193   8.8376 0008859 214.9190 287.6672 15.10010806265717
FLYING LAPTOP           
1 42831U 17042G   22099.57225662  .00001916  00000+0  19578-3 0  9998
2 42831  97.4321 318.0070 0012507 234.0075 126.0006 14.91624924257822
PICSAT                  
1 43132U 18004X   22099.44856258  .00015868  00000+0  55991-3 0  9999
2 43132  97.3752 176.2963 0007254 235.7430 124.3123 15.29301473235858
ZHANGZHENG-1 (CSES)     
1 43194U 18015C   22099.38306059  .00010304  00000+0  46532-3 0  9992
2 43194  97.5108 230.2806 0009861 350.2044  94.5878 15.21122279232129
ICON                    
1 44628U 19068A   22099.50352552  .00003009  00000+0  26609-3 0  9994
2 44628  26.9903  39.1646 0018305 316.3759  43.5352 14.92522661136252
SALSAT                  
1 46495U 20068K   22099.58500480  .00003717  00000+0  27179-3 0  9992
2 46495  97.7235  40.9073 0017353 147.0354 213.1957 15.04127062 83837
IXPE                    
1 49954U 21121A   22099.07404343  .00003264  00000+0  24565-3 0  9994
2 49954   0.2277 171.6625 0011168 355.4868 192.8786 14.91078736 18056
